{
  "norad_id": 66209,
  "name": "STARLINK-35750",
  "history": [
    {
      "epoch": "2026-03-28T10:30:01.559520Z",
      "apogee_km": 475.8784685026967,
      "perigee_km": 474.53548721679545,
      "latitude_deg": 1.5261429004898702e-05,
      "longitude_deg": 159.20104015749217,
      "height_km": 475.7693522717941,
      "semi_major_axis_km": 6853.343977859746,
      "eccentricity": 9.798e-05,
      "inclination_deg": 53.157,
      "raan_deg": 142.5655,
      "arg_perigee_deg": 59.9799,
      "mean_anomaly_deg": 300.1299,
      "mean_motion_rev_day": 15.3020271
    },
    {
      "epoch": "2026-03-30T03:15:24.731424Z",
      "apogee_km": 475.9995140491419,
      "perigee_km": 474.3071625330049,
      "latitude_deg": 1.3834970205695163e-05,
      "longitude_deg": -101.70751743675255,
      "height_km": 475.93539380246136,
      "semi_major_axis_km": 6853.290338291074,
      "eccentricity": 0.00012347,
      "inclination_deg": 53.1582,
      "raan_deg": 134.6773,
      "arg_perigee_deg": 82.1276,
      "mean_anomaly_deg": 277.9865,
      "mean_motion_rev_day": 15.30220675
    },
    {
      "epoch": "2026-03-30T12:39:43.947936Z",
      "apogee_km": 475.95687276323497,
      "perigee_km": 474.46448777237947,
      "latitude_deg": 6.11731459718429e-05,
      "longitude_deg": 115.00878598279402,
      "height_km": 475.87711288131993,
      "semi_major_axis_km": 6853.347680267807,
      "eccentricity": 0.00010888,
      "inclination_deg": 53.1591,
      "raan_deg": 132.8599,
      "arg_perigee_deg": 71.8971,
      "mean_anomaly_deg": 288.2149,
      "mean_motion_rev_day": 15.3020147
    },
    {
      "epoch": "2026-03-31T12:10:31.915776Z",
      "apogee_km": 476.0629810813798,
      "perigee_km": 474.4111808603848,
      "latitude_deg": -5.046747107607898e-05,
      "longitude_deg": 116.79048014082467,
      "height_km": 476.09572170475303,
      "semi_major_axis_km": 6853.3740809708825,
      "eccentricity": 0.00012051,
      "inclination_deg": 53.1587,
      "raan_deg": 128.3072,
      "arg_perigee_deg": 87.2663,
      "mean_anomaly_deg": 272.8475,
      "mean_motion_rev_day": 15.30192628
    },
    {
      "epoch": "2026-04-01T19:31:36.042240Z",
      "apogee_km": 476.46013833588313,
      "perigee_km": 473.96963026112917,
      "latitude_deg": -2.4928119147926966e-07,
      "longitude_deg": -0.8330201730033018,
      "height_km": 475.997767238141,
      "semi_major_axis_km": 6853.351884298506,
      "eccentricity": 0.0001817,
      "inclination_deg": 53.1584,
      "raan_deg": 122.2384,
      "arg_perigee_deg": 84.7352,
      "mean_anomaly_deg": 275.3856,
      "mean_motion_rev_day": 15.30200062
    },
    {
      "epoch": "2026-04-02T19:02:23.557344Z",
      "apogee_km": 476.16360589825126,
      "perigee_km": 474.16518321159856,
      "latitude_deg": 5.275680093388702e-05,
      "longitude_deg": 0.9522877501827531,
      "height_km": 476.13533416650955,
      "semi_major_axis_km": 6853.301394554925,
      "eccentricity": 0.0001458,
      "inclination_deg": 53.158,
      "raan_deg": 117.6873,
      "arg_perigee_deg": 94.209,
      "mean_anomaly_deg": 265.9078,
      "mean_motion_rev_day": 15.30216972
    }
  ]
}